*******************************************************************************
JPL/HORIZONS               345 Tercidina (A892 WB)         2020-Jun-22 08:53:53
Rec #:     345 (+COV) Soln.date: 2020-Feb-22_15:25:04   # obs: 2763 (1892-2020)
 
IAU76/J2000 helio. ecliptic osc. elements (au, days, deg., period=Julian yrs):
 
  EPOCH=  2454925.5 ! 2009-Apr-04.00 (TDB)         Residual RMS= .32249
   EC= .06044142755867865  QR= 2.185038951558096   TP= 2455267.6461425233
   OM= 212.7034905362582   W=  230.4524322344194   IN= 9.747637950724082
   A= 2.325601634265924    MA= 264.9148412433993   ADIST= 2.466164316973753
   PER= 3.54659            N= .277908017           ANGMOM= .026185108
   DAN= 2.40985            DDN= 2.23124            L= 82.74630329999999
   B= -7.5015751           MOID= 1.21179998        TP= 2010-Mar-12.1461425233
 
Asteroid physical parameters (km, seconds, rotational period in hours):
   GM= n.a.                RAD= 45.1215            ROTPER= 12.371
   H= 8.9                  G= .100                 B-V= .729
                           ALBEDO= .052            STYP= Ch
 
ASTEROID comments: 
1: soln ref.= JPL#116, OCC=0
2: source=ORB
*******************************************************************************
 
 
*******************************************************************************
Ephemeris / WWW_USER Mon Jun 22 08:53:53 2020 Pasadena, USA      / Horizons
*******************************************************************************
Target body name: 345 Tercidina (A892 WB)         {source: JPL#116}
Center body name: Solar System Barycenter (0)     {source: DE431}
Center-site name: BODY CENTER
*******************************************************************************
Start time      : A.D. 1969-Jun-28 00:00:00.0000 TDB
Stop  time      : A.D. 2071-May-04 00:00:00.0000 TDB
Step-size       : 7200 minutes
*******************************************************************************
Center geodetic : 0.00000000,0.00000000,0.0000000 {E-lon(deg),Lat(deg),Alt(km)}
Center cylindric: 0.00000000,0.00000000,0.0000000 {E-lon(deg),Dxy(km),Dz(km)}
Center radii    : (undefined)                                                  
Small perturbers: Yes                             {source: SB431-N16}
Output units    : AU-D
Output type     : GEOMETRIC cartesian states
Output format   : 2 (position and velocity)
Reference frame : Ecliptic of J2000.0
*******************************************************************************
Initial IAU76/J2000 heliocentric ecliptic osculating elements (au, days, deg.):
  EPOCH=  2454925.5 ! 2009-Apr-04.00 (TDB)         Residual RMS= .32249        
   EC= .06044142755867865  QR= 2.185038951558096   TP= 2455267.6461425233      
   OM= 212.7034905362582   W=  230.4524322344194   IN= 9.747637950724082       
  Equivalent ICRF heliocentric equatorial cartesian coordinates (au, au/d):
   X= 2.207352346526323E+00  Y=-7.957143623218297E-01  Z=-6.261615214113392E-03
  VX= 3.015622234748848E-03 VY= 1.031185416132690E-02 VZ= 3.091413374059526E-03
Asteroid physical parameters (km, seconds, rotational period in hours):        
   GM= n.a.                RAD= 45.1215            ROTPER= 12.371              
   H= 8.9                  G= .100                 B-V= .729                   
                           ALBEDO= .052            STYP= Ch                    
*******************************************************************************
            JDTDB,            Calendar Date (TDB),        delta-T,                      X,                      Y,                      Z,                     VX,                     VY,                     VZ,
******************************************************************************************************************************************************************************************************************
$$SOE
2458880.500000000, A.D. 2020-Feb-01 00:00:00.0000,      69.184782,  2.286849572514655E+00,  3.613132401517610E-02,  2.078353039461114E-01, -6.890967261638074E-04,  1.125184502139563E-02, -1.690902674969661E-03,
2458885.500000000, A.D. 2020-Feb-06 00:00:00.0000,      69.184909,  2.282707375852215E+00,  9.237596244845489E-02,  1.993184175599913E-01, -9.679074983990932E-04,  1.124486322082128E-02, -1.715697519339816E-03,
2458890.500000000, A.D. 2020-Feb-11 00:00:00.0000,      69.185027,  2.277169384958446E+00,  1.485684380089786E-01,  1.906798923683931E-01, -1.247385696368026E-03,  1.123097062796868E-02, -1.739554203144314E-03,
2458895.500000000, A.D. 2020-Feb-16 00:00:00.0000,      69.185138,  2.270232696461961E+00,  2.046740615275278E-01,  1.819244788549321E-01, -1.527357235085363E-03,  1.121011385749589E-02, -1.762448901088714E-03,
2458900.500000000, A.D. 2020-Feb-21 00:00:00.0000,      69.185242,  2.261895286085035E+00,  2.606578875344477E-01,  1.730570458958781E-01, -1.807644574876662E-03,  1.118224380644700E-02, -1.784358087153349E-03,
2458905.500000000, A.D. 2020-Feb-26 00:00:00.0000,      69.185337,  2.252156025715960E+00,  3.164847361495720E-01,  1.640825791763683E-01, -2.088066803680657E-03,  1.114731584544076E-02, -1.805258569801388E-03,
2458910.500000000, A.D. 2020-Mar-02 00:00:00.0000,      69.185421,  2.241014700041031E+00,  3.721192159284651E-01,  1.550061794270143E-01, -2.368439730992743E-03,  1.110529001009382E-02, -1.825127528582370E-03,
2458915.500000000, A.D. 2020-Mar-07 00:00:00.0000,      69.185493,  2.228472022677823E+00,  4.275257476667759E-01,  1.458330604745981E-01, -2.648575993303226E-03,  1.105613119278545E-02, -1.843942551841339E-03,
2458920.500000000, A.D. 2020-Mar-12 00:00:00.0000,      69.185552,  2.214529651753564E+00,  4.826685891630420E-01,  1.365685471019392E-01, -2.928285170598525E-03,  1.099980933413903E-02, -1.861681675321489E-03,
2458925.500000000, A.D. 2020-Mar-17 00:00:00.0000,      69.185601,  2.199190204873315E+00,  5.375118609365224E-01,  1.272180727126864E-01, -3.207373913963446E-03,  1.093629961342424E-02, -1.878323421583793E-03,
2458930.500000000, A.D. 2020-Mar-22 00:00:00.0000,      69.185639,  2.182457273421874E+00,  5.920195728928179E-01,  1.177871767970659E-01, -3.485646084534695E-03,  1.086558263715373E-02, -1.893846840194779E-03,
2458935.500000000, A.D. 2020-Mar-27 00:00:00.0000,      69.185666,  2.164335436142055E+00,  6.461556519265232E-01,  1.082815021949055E-01, -3.762902904035225E-03,  1.078764462518553E-02, -1.908231548617093E-03,
2458940.500000000, A.D. 2020-Apr-01 00:00:00.0000,      69.185679,  2.144830271930956E+00,  6.998839704467209E-01,  9.870679215261408E-02, -4.038943117062366E-03,  1.070247759364057E-02, -1.921457773721174E-03,
2458945.500000000, A.D. 2020-Apr-06 00:00:00.0000,      69.185678,  2.123948371795156E+00,  7.531683758076309E-01,  8.906888717124414E-02, -4.313563165244596E-03,  1.061007953392819E-02, -1.933506393824053E-03,
2458950.500000000, A.D. 2020-Apr-11 00:00:00.0000,      69.185664,  2.101697349905330E+00,  8.059727206231612E-01,  7.937372164326029E-02, -4.586557373324479E-03,  1.051045458716125E-02, -1.944358981150005E-03,
2458955.500000000, A.D. 2020-Apr-16 00:00:00.0000,      69.185639,  2.078085853690635E+00,  8.582608939405089E-01,  6.962732027618809E-02, -4.857718147154117E-03,  1.040361321324164E-02, -1.953997844596646E-03,
2458960.500000000, A.D. 2020-Apr-21 00:00:00.0000,      69.185604,  2.053123572913569E+00,  9.099968532443758E-01,  5.983579430193361E-02, -5.126836183477400E-03,  1.028957235390033E-02, -1.962406072680231E-03,
2458965.500000000, A.D. 2020-Apr-26 00:00:00.0000,      69.185557,  2.026821247667031E+00,  9.611446572596928E-01,  5.000533747118353E-02, -5.393700691207165E-03,  1.016835558891701E-02, -1.969567576538942E-03,
2458970.500000000, A.D. 2020-May-01 00:00:00.0000,      69.185498,  1.999190675237007E+00,  1.011668499516243E+00,  4.014222183280942E-02, -5.658099623863562E-03,  1.003999328443578E-02, -1.975467132925345E-03,
2458975.500000000, A.D. 2020-May-06 00:00:00.0000,      69.185427,  1.970244715774723E+00,  1.061532742631892E+00,  3.025279329833337E-02, -5.919819923517017E-03,  9.904522731820865E-03, -1.980090427185503E-03,
2458980.500000000, A.D. 2020-May-11 00:00:00.0000,      69.185344,  1.939997296717423E+00,  1.110701953264268E+00,  2.034346699183122E-02, -6.178647777602058E-03,  9.761988276241381E-03, -1.983424096037076E-03,
2458985.500000000, A.D. 2020-May-16 00:00:00.0000,      69.185254,  1.908463415893329E+00,  1.159140937682192E+00,  1.042072238758918E-02, -6.434368887948631E-03,  9.612441436236368E-03, -1.985455769598091E-03,
2458990.500000000, A.D. 2020-May-21 00:00:00.0000,      69.185155,  1.875659143258656E+00,  1.206814777912834E+00,  4.910982400243076E-04, -6.686768748413323E-03,  9.455941014066851E-03, -1.986174112490421E-03,
2458995.500000000, A.D. 2020-May-26 00:00:00.0000,      69.185049,  1.841601621226983E+00,  1.253688868411062E+00, -9.438812690278959E-03, -6.935632930618644E-03,  9.292553193735975E-03, -1.985568864323698E-03,
2459000.500000000, A.D. 2020-May-31 00:00:00.0000,      69.184934,  1.806309063545245E+00,  1.299728953184366E+00, -1.936236911127958E-02, -7.180747379768762E-03,  9.122351625178314E-03, -1.983630879448931E-03,
2459005.500000000, A.D. 2020-Jun-05 00:00:00.0000,      69.184811,  1.769800752665327E+00,  1.344901163304517E+00, -2.927288687033255E-02, -7.421898720392254E-03,  8.945417494783059E-03, -1.980352165608870E-03,
2459010.500000000, A.D. 2020-Jun-10 00:00:00.0000,      69.184682,  1.732097035564893E+00,  1.389172054737221E+00, -3.916364481502285E-02, -7.658874570699611E-03,  8.761839581960336E-03, -1.975725921252595E-03,
2459015.500000000, A.D. 2020-Jun-15 00:00:00.0000,      69.184550,  1.693219317977134E+00,  1.432508646418174E+00, -4.902789083692332E-02, -7.891463864511054E-03,  8.571714301009913E-03, -1.969746571366714E-03,
